TEMPEST-D               
1 43547U 98067NV  20113.82218766  .00006335  00000-0  77409-4 0  9998
2 43547  51.6368 232.5951 0004621 204.9281 155.1490 15.61879983100823
RAINCUBE                
1 43548U 98067NW  20114.18282005  .00028578  00000-0  22091-3 0  9995
2 43548  51.6338 213.1208 0003649 256.7303 103.3288 15.71654982101563
HALOSAT                 
1 43549U 98067NX  20114.54331394  .00027947  00000-0  22057-3 0  9993
2 43549  51.6361 211.8412 0003147 262.5591  97.5049 15.71173180101171
ENDUROSAT ONE           
1 43551U 98067NZ  20114.50088352  .00042778  00000-0  26111-3 0  9999
2 43551  51.6357 203.2187 0003923 286.3117  73.7452 15.76937523101698
EQUISAT                 
1 43552U 98067PA  20113.83219436  .00029249  00000-0  22534-3 0  9997
2 43552  51.6361 213.8814 0004305 260.8488  99.2023 15.71718430101451
AEROCUBE 12A            
1 43556U 18046C   20114.16882670  .00001646  00000-0  68836-4 0  9990
2 43556  51.6434  11.1667 0008899  96.6369 263.5624 15.29647352 98912
AEROCUBE 12B            
1 43557U 18046D   20114.41576326  .00000685  00000-0  36195-4 0  9992
2 43557  51.6438  10.5555 0008986  97.6911 262.5090 15.29383140 98892
UITMSAT-1               
1 43589U 98067PD  20114.25861170  .00035188  00000-0  24766-3 0  9990
2 43589  51.6319 210.5643 0004362 281.5241  78.5268 15.73752147 97278
MAYA-1                  
1 43590U 98067PE  20114.50554806  .00035198  00000-0  24743-3 0  9991
2 43590  51.6330 209.2234 0004332 282.9731  77.0784 15.73780529 97249
BHUTAN-1                
1 43591U 98067PF  20114.29209664  .00035356  00000-0  24762-3 0  9994
2 43591  51.6330 210.1047 0004539 281.6701  78.3789 15.73863698 97210
SIRIUSSAT-1             
1 43595U 98067PG  20114.20128932  .00031450  00000-0  24081-3 0  9992
2 43595  51.6329 214.7131 0001846 263.9093  96.1694 15.71831812 96326
SIRIUSSAT-2             
1 43596U 98067PH  20114.51369233  .00030421  00000-0  23406-3 0  9995
2 43596  51.6341 213.8691 0002013 254.0776 106.0000 15.71734678 96366
TANUSHA-3               
1 43597U 98067PJ  20114.22872744  .00059845  00000-0  32793-3 0  9990
2 43597  51.6303 205.7710 0003366 312.9773  47.0945 15.79211409 96441
SURFSAT                 
1 43614U 18070B   20114.20359738  .00002710  00000-0  70376-4 0  9996
2 43614  93.0208 131.7588 0015123 179.9664 180.1594 15.38929914 89982
CP7 (DAVE)              
1 43615U 18070C   20114.16502188  .00002560  00000-0  66769-4 0  9995
2 43615  93.0209 131.7362 0015283 179.7314 180.3951 15.38798139 89972
ELFIN-B                 
1 43616U 18070D   20114.18677297  .00003512  00000-0  87890-4 0  9998
2 43616  93.0171 131.6718 0015690 181.7878 178.3323 15.40031603 90011
ELFIN-A                 
1 43617U 18070E   20114.48619847  .00004195  00000-0  10441-3 0  9994
2 43617  93.0225 132.2619 0015258 176.8969 183.2383 15.40194177 90067
CUBEBEL-1 (BSUSAT-1)    
1 43666U 18083E   20114.54407328  .00001212  00000-0  62581-4 0  9998
2 43666  97.4937 141.5402 0014354 185.1423 327.4657 15.18157300 82289
DEBRISSAT-2             
1 43680U 98067PR  20114.48119023  .00172578  22278-4  51016-3 0  9998
2 43680  51.6304 196.1732 0007874 343.8644  16.2110 15.92187792105322
CICERO 10               
1 43690U 18088A   20114.26568429  .00000915  00000-0  40323-4 0  9998
2 43690  85.0344 114.6880 0016125 145.0571 215.1732 15.20149824 80379
IRVINE01                
1 43693U 18088D   20114.02916105  .00002783  00000-0  11738-3 0  9995
2 43693  85.0314 113.6980 0019781 130.0688 230.2293 15.22634630 80414
PROXIMA I               
1 43694U 18088E   20114.45226965  .00000970  00000-0  40587-4 0  9992
2 43694  85.0288 113.2342 0021254 121.9724 238.3588 15.21879101 80476
PROXIMA II              
1 43696U 18088G   20114.25332055  .00000965  00000-0  40369-4 0  9992
2 43696  85.0288 113.3688 0021282 122.5607 237.7694 15.21881314 80447
FACSAT-1                
1 43721U 18096C   20114.43351336  .00001373  00000-0  54321-4 0  9990
2 43721  97.4232 188.3016 0016450 321.4013  38.6048 15.27082568 77998
CENTAURI-2              
1 43722U 18096D   20114.14996422  .00002013  00000-0  77223-4 0  9998
2 43722  97.4242 188.2441 0016403 322.4095  37.5996 15.27563395 77958
INNOSAT-2               
1 43738U 18096V   20114.46449850  .00003013  00000-0  10547-3 0  9994
2 43738  97.4257 190.3012 0022366 328.0928  31.8957 15.30072508 78120
SIRION PATHFINDER-2     
1 43759U 18099B   20114.43680224 -.00000076  00000-0 -16637-5 0  9995
2 43759  97.7084 187.0258 0014573  13.3553 346.8051 14.95256717 75709
CORVUS-BC 4             
1 43767U 18099K   20114.22372200  .00000417  00000-0  43642-4 0  9995
2 43767  97.7066 186.2869 0012176  19.3868 340.7814 14.94700831 75653
MOVE-II                 
1 43780U 18099Y   20114.45397733  .00000187  00000-0  22090-4 0  9991
2 43780  97.7087 186.9592 0013934  24.7233 335.4653 14.95346081 75690
SPACEBEE-7              
1 43816U 18099BL  20114.13661186  .00000588  00000-0  58045-4 0  9996
2 43816  97.7099 187.0044 0013358  10.7103 349.4399 14.95647106 75221
SPACEBEE-5              
1 43817U 18099BM  20114.44595352  .00000549  00000-0  53768-4 0  9996
2 43817  97.7149 187.6712 0013083  10.2457 349.9029 14.96202278 75287
SPACEBEE-6              
1 43818U 18099BN  20114.17371027  .00000226  00000-0  25415-4 0  9998
2 43818  97.7117 187.1543 0013434  10.7475 349.4030 14.95824523 75385
SHIELDS 1               
1 43850U 18104B   20114.21481816  .00000041  00000-0  00000+0 0  9997
2 43850  85.0320 211.8527 0012541 274.9446  85.0370 15.21339019 75071
STF-1                   
1 43852U 18104D   20114.02579291  .00000041  00000-0  00000+0 0  9993
2 43852  85.0365 212.4809 0012429 292.3839  67.6144 15.21175880 75021
ZACUBE-2                
1 43907U 18111AH  20114.51608586  .00000637  00000-0  28580-4 0  9995
2 43907  97.2704  15.9209 0021019 342.3897  17.6610 15.24535098 73642
LUME 1                  
1 43908U 18111AJ  20114.52123201  .00001211  00000-0  51196-4 0  9991
2 43908  97.2704  16.0613 0020802 342.1829  17.8677 15.24937916 73657
AOBA VELOX-IV           
1 43940U 19003J   20114.41290324  .00002260  00000-0  93062-4 0  9990
2 43940  97.2336 167.5675 0025533  60.2049  67.9915 15.24822268 70260
CATSAT-2                
1 44029U 98067PV  20113.93210583  .00020416  00000-0  22026-3 0  9995
2 44029  51.6388 237.1316 0003899 241.4359 118.6244 15.63629921 69838
DELPHINI                
1 44030U 98067PW  20113.78969505  .00021350  00000-0  22313-3 0  9992
2 44030  51.6348 236.8428 0003804 243.4831 116.5774 15.64410030 69799
UNITE                   
1 44031U 98067PX  20114.37552767  .00010674  00000-0  13362-3 0  9998
2 44031  51.6375 239.3070 0002803 230.9242 129.1502 15.60386505 69813
TECHEDSAT 8             
1 44032U 98067PY  20111.15468586  .13178104  12516-4  85387-3 0  9999
2 44032  51.6107 221.1148 0008059 315.3167  44.7209 16.40789031 69743
CATSAT-1                
1 44033U 98067PZ  20113.93191130  .00020365  00000-0  21969-3 0  9994
2 44033  51.6388 237.1356 0003634 241.1855 118.8775 15.63635518 69742
RAAVANA-1               
1 44329U 98067QE  20113.43257432  .00015954  00000-0  22379-3 0  9999
2 44329  51.6388 254.8032 0006046 153.5149 206.6153 15.56901040 48278
UGUISU                  
1 44330U 98067QF  20114.40521698  .00011679  00000-0  16604-3 0  9991
2 44330  51.6385 250.0453 0005940 155.2997 204.8280 15.56851426 48402
NEPALISAT-1             
1 44331U 98067QG  20113.81111176  .00013087  00000-0  18463-3 0  9992
2 44331  51.6388 252.8305 0006020 156.1757 203.9514 15.56936271 48329
SPOOQY-1                
1 44332U 98067QH  20114.38919615  .00012296  00000-0  17430-3 0  9994
2 44332  51.6390 249.9382 0004944 160.2789 199.8395 15.56878240 48375
SPACEBEE-9              
1 44370U 19037F   20114.25363504  .00009704  00000-0  22489-3 0  9992
2 44370  45.0111  64.2139 0012398 226.5813 133.4077 15.42684634 46072
SPACEBEE-8              
1 44371U 19037G   20114.27004402  .00018595  00000-0  37631-3 0  9997
2 44371  45.0098  60.1256 0010007 228.2364 131.7674 15.46172249 46114
IOD-1 GEMS              
1 44385U 98067QK  20113.93657103  .00018899  00000-0  24735-3 0  9994
2 44385  51.6402 251.4582 0002140 113.7359 246.3858 15.58639278 45826
MOVE-IIB                
1 44398U 19038N   20114.17011664  .00001343  00000-0  81096-4 0  9992
2 44398  97.5314  76.1277 0024260 321.4610  38.4888 15.12212667 44224
SONATE                  
1 44400U 19038Q   20114.19218289  .00000498  00000-0  32770-4 0  9995
2 44400  97.5348  76.1680 0024172 319.4515  40.4914 15.11905991 44227
LUCKY-7                 
1 44406U 19038W   20114.15116824  .00000665  00000-0  42183-4 0  9994
2 44406  97.5342  76.2129 0023643 319.3660  40.5805 15.12158224 44217
BEESAT 9                
1 44412U 19038AC  20114.15233114  .00000939  00000-0  57902-4 0  9992
2 44412  97.5334  76.1953 0021875 325.8163  34.1658 15.12215676 43910
JAISAT-1                
1 44419U 19038F   20114.19027154  .00000959  00000-0  58313-4 0  9997
2 44419  97.5337  76.4553 0020685 325.2292  34.7585 15.12698905 44246
SWIATOWID               
1 44426U 98067QL  20114.38009465  .00025238  00000-0  32032-3 0  9996
2 44426  51.6409 248.9489 0002635 121.7081 336.0464 15.59258788 45910
KRAKSAT                 
1 44427U 98067QM  20114.53594803  .00008731  00000-0  13347-3 0  9996
2 44427  51.6406 251.7028 0003568 109.8495 250.2881 15.55250629 45935
VCC A                   
1 44428U 98067QN  20113.98115278  .00012184  00000-0  17633-3 0  9999
2 44428  51.6402 253.2514 0002645 130.0452 230.0772 15.56327718 45865
ENTRYSAT                
1 44429U 98067QP  20114.36744459  .00013803  00000-0  19307-3 0  9991
2 44429  51.6391 250.5637 0002274 122.6482 237.4729 15.57124534 45930
VCC C                   
1 44430U 98067QQ  20114.37794126  .00016770  00000-0  22523-3 0  9990
2 44430  51.6392 249.8949 0002103 138.2078 221.9075 15.58043572 44760
